OBJECT_NAME,OBJECT_ID,EPOCH,MEAN_MOTION,ECCENTRICITY,INCLINATION,RA_OF_ASC_NODE,ARG_OF_PERICENTER,MEAN_ANOMALY,EPHEMERIS_TYPE,CLASSIFICATION_TYPE,NORAD_CAT_ID,ELEMENT_SET_NO,REV_AT_EPOCH,BSTAR,MEAN_MOTION_DOT,MEAN_MOTION_DDOT
HAWK-5A,2022-057AB,2026-06-09T16:33:44.385120,15.51121043,.00059476,97.6595,319.0566,101.3237,258.8683,0,U,52757,999,22518,.2988649E-3,.17349E-3,0
HAWK-6B,2023-011A,2026-06-09T09:06:15.969600,15.22858702,.00037315,40.4990,37.6099,318.4119,41.6406,0,U,55324,999,18665,.17318451E-3,.3947E-4,0
HAWK-6C,2023-011C,2026-06-09T09:05:18.780576,15.22867772,.00043141,40.4982,34.4522,308.3612,51.6810,0,U,55326,999,18666,.18394517E-3,.4206E-4,0
HAWK-6A,2023-011D,2026-06-08T23:38:46.511520,15.22856626,.00040343,40.4991,38.3707,304.4298,55.6129,0,U,55327,999,18660,.17018096E-3,.3875E-4,0
HAWK-7A,2023-054P,2026-06-09T15:23:46.603104,15.27278077,.00046896,97.2725,48.1714,71.3082,288.8666,0,U,56191,999,17587,.59305091E-4,.1514E-4,0
HAWK-7B,2023-054R,2026-06-09T15:23:39.216768,15.27284398,.000401,97.2740,46.4316,83.7392,276.4304,0,U,56193,999,17587,.19800235E-3,.5221E-4,0
HAWK-7C,2023-054Y,2026-06-09T15:23:29.711904,15.27281326,.00040799,97.2718,47.2026,75.5988,284.5704,0,U,56200,999,17587,.19829234E-3,.5228E-4,0
