HAWK-5A                 
1 52757U 22057AB  26160.69009705  .00017349  00000+0  29886-3 0  9992
2 52757  97.6595 319.0566 0005947 101.3237 258.8683 15.51121043225182
HAWK-6B                 
1 55324U 23011A   26160.37935150  .00003947  00000+0  17318-3 0  9999
2 55324  40.4990  37.6099 0003731 318.4119  41.6406 15.22858702186659
HAWK-6C                 
1 55326U 23011C   26160.37868959  .00004206  00000+0  18395-3 0  9998
2 55326  40.4982  34.4522 0004314 308.3612  51.6810 15.22867772186660
HAWK-6A                 
1 55327U 23011D   26159.98526055  .00003875  00000+0  17018-3 0  9994
2 55327  40.4991  38.3707 0004034 304.4298  55.6129 15.22856626186602
HAWK-7A                 
1 56191U 23054P   26160.64151161  .00001514  00000+0  59305-4 0  9992
2 56191  97.2725  48.1714 0004689  71.3082 288.8666 15.27278077175877
HAWK-7B                 
1 56193U 23054R   26160.64142612  .00005221  00000+0  19800-3 0  9999
2 56193  97.2740  46.4316 0004010  83.7392 276.4304 15.27284398175879
HAWK-7C                 
1 56200U 23054Y   26160.64131611  .00005228  00000+0  19829-3 0  9993
2 56200  97.2718  47.2026 0004079  75.5988 284.5704 15.27281326175877
